NORAD_CAT_ID,OBJECT_NAME,OBJECT_TYPE,EPOCH,MEAN_MOTION,ECCENTRICITY,INCLINATION,RA_OF_ASC_NODE,ARG_OF_PERICENTER,MEAN_ANOMALY,BSTAR,MEAN_MOTION_DOT,MEAN_MOTION_DDOT,TLE_LINE0,TLE_LINE1,TLE_LINE2,SEMIMAJOR_AXIS,PERIOD,APOGEE,PERIGEE,DECAYED
55657.0,STARLINK-5328,PAYLOAD,2024-04-29 23:04:56,14.98323164,0.0003012,69.9998,75.934,270.1959,89.8855,0.0001852,2.117e-05,0.0,0 STARLINK-5328,1 55657U 23021AF  24120.96176364  .00002117  00000-0  18520-3 0  9997,2 55657  69.9998  75.9340 0003012 270.1959  89.8855 14.98323164 67611,6950.214,96.107,574.172,569.986,0.0
55657.0,STARLINK-5328,PAYLOAD,2024-04-30 07:05:36,14.98330394,0.0002989,69.9998,75.0924,269.7106,90.371,0.00019664,2.254e-05,0.0,0 STARLINK-5328,1 55657U 23021AF  24121.29555964  .00002254  00000-0  19664-3 0  9993,2 55657  69.9998  75.0924 0002989 269.7106  90.3710 14.98330394 67362,6950.192,96.107,574.134,569.979,0.0
55657.0,STARLINK-5328,PAYLOAD,2024-04-30 21:30:50,14.98269519,0.0002881,70.0003,73.5777,263.1355,96.9476,0.0010861,0.0001287,0.0,0 STARLINK-5328,1 55657U 23021AF  24121.89641630  .00012870  00000-0  10861-2 0  9999,2 55657  70.0003  73.5777 0002881 263.1355  96.9476 14.98269519 67457,6950.38,96.111,574.247,570.243,0.0
55657.0,STARLINK-5328,PAYLOAD,2024-04-30 23:06:57,14.98328177,0.0002894,70.0003,73.4094,269.7373,90.3455,6.3155e-05,6.61e-06,0.0,0 STARLINK-5328,1 55657U 23021AF  24121.96316445  .00000661  00000-0  63155-4 0  9991,2 55657  70.0003  73.4094 0002894 269.7373  90.3455 14.98328177 67769,6950.199,96.107,574.075,570.052,0.0
55657.0,STARLINK-5328,PAYLOAD,2024-05-01 05:31:28,14.98359557,0.000244,70.0,72.736,257.3138,102.7748,-0.00041296,-5.02e-05,0.0,0 STARLINK-5328,1 55657U 23021AF  24122.23019452 -.00005020  00000-0 -41296-3 0  9997,2 55657  70.0000  72.7360 0002440 257.3138 102.7748 14.98359557 67504,6950.101,96.105,573.662,570.271,0.0
55657.0,STARLINK-5328,PAYLOAD,2024-05-01 13:32:09,14.98337607,0.0002766,70.0005,71.896,263.5642,96.5202,-7.9962e-05,-1.047e-05,0.0,0 STARLINK-5328,1 55657U 23021AF  24122.56399971 -.00001047  00000-0 -79962-4 0  9997,2 55657  70.0005  71.8960 0002766 263.5642  96.5202 14.98337607 67850,6950.169,96.107,573.957,570.112,0.0
55657.0,STARLINK-5328,PAYLOAD,2024-05-01 19:56:41,14.98333993,0.0002974,69.9999,71.2212,267.4635,92.6183,3.2164e-05,2.91e-06,0.0,0 STARLINK-5328,1 55657U 23021AF  24122.83103806  .00000291  00000-0  32164-4 0  9998,2 55657  69.9999  71.2212 0002974 267.4635  92.6183 14.98333993 67599,6950.181,96.107,574.113,569.979,0.0
55657.0,STARLINK-5328,PAYLOAD,2024-05-02 13:34:10,14.98336592,0.0002919,69.9999,69.3695,268.3661,91.7164,-4.0898e-05,-5.81e-06,0.0,0 STARLINK-5328,1 55657U 23021AF  24123.56539557 -.00000581  00000-0 -40898-4 0  9992,2 55657  69.9999  69.3695 0002919 268.3661  91.7164 14.98336592 68004,6950.173,96.107,574.066,570.009,0.0
55657.0,STARLINK-5328,PAYLOAD,2024-05-03 05:35:30,14.98333602,0.0002642,70.0005,67.6873,259.1762,100.91,5.8555e-05,6.06e-06,0.0,0 STARLINK-5328,1 55657U 23021AF  24124.23299421  .00000606  00000-0  58555-4 0  9995,2 55657  70.0005  67.6873 0002642 259.1762 100.9100 14.98333602 67806,6950.182,96.107,573.883,570.211,0.0
55657.0,STARLINK-5328,PAYLOAD,2024-05-03 13:36:12,14.98325125,0.0001907,70.0002,66.8447,274.6131,85.481,-6.7427e-05,-8.97e-06,0.0,0 STARLINK-5328,1 55657U 23021AF  24124.56680584 -.00000897  00000-0 -67427-4 0  9997,2 55657  70.0002  66.8447 0001907 274.6131  85.4810 14.98325125 68151,6950.208,96.107,573.398,570.748,0.0
55657.0,STARLINK-5328,PAYLOAD,2024-05-03 21:36:52,14.98322862,0.0002782,70.0,66.0033,270.2306,89.8534,-0.00010774,-1.378e-05,0.0,0 STARLINK-5328,1 55657U 23021AF  24124.90060556 -.00001378  00000-0 -10774-3 0  9993,2 55657  70.0000  66.0033 0002782 270.2306  89.8534 14.98322862 68202,6950.215,96.107,574.014,570.146,0.0
55657.0,STARLINK-5328,PAYLOAD,2024-05-04 20:02:44,14.98327987,0.0002967,70.0002,63.6473,269.3525,90.7294,3.0056e-05,2.66e-06,0.0,0 STARLINK-5328,1 55657U 23021AF  24125.83524184  .00000266  00000-0  30056-4 0  9997,2 55657  70.0002  63.6473 0002967 269.3525  90.7294 14.98327987 68041,6950.199,96.107,574.126,570.002,0.0
55657.0,STARLINK-5328,PAYLOAD,2024-05-05 05:39:32,14.98335295,0.0002988,70.0003,62.6364,267.2886,92.7931,6.6602e-05,7.02e-06,0.0,0 STARLINK-5328,1 55657U 23021AF  24126.23579626  .00000702  00000-0  66602-4 0  9994,2 55657  70.0003  62.6364 0002988 267.2886  92.7931 14.98335295 68108,6950.177,96.107,574.118,569.965,0.0
55657.0,STARLINK-5328,PAYLOAD,2024-05-05 21:40:53,14.98327233,0.0003025,70.0004,60.9534,269.0873,90.9939,0.00018095,2.067e-05,0.0,0 STARLINK-5328,1 55657U 23021AF  24126.90339778  .00002067  00000-0  18095-3 0  9998,2 55657  70.0004  60.9534 0003025 269.0873  90.9939 14.98327233 68503,6950.201,96.107,574.169,569.964,0.0
55657.0,STARLINK-5328,PAYLOAD,2024-05-06 05:41:33,14.98335616,0.0003,70.0004,60.1119,268.9715,91.11,0.00022152,2.551e-05,0.0,0 STARLINK-5328,1 55657U 23021AF  24127.23719178  .00002551  00000-0  22152-3 0  9998,2 55657  70.0004  60.1119 0003000 268.9715  91.1100 14.98335616 68259,6950.176,96.107,574.126,569.955,0.0
55657.0,STARLINK-5328,PAYLOAD,2024-05-06 21:42:54,14.98331625,0.0002797,70.0012,58.4297,268.2834,91.8005,0.00010343,1.141e-05,0.0,0 STARLINK-5328,1 55657U 23021AF  24127.90479615  .00001141  00000-0  10343-3 0  9994,2 55657  70.0012  58.4297 0002797 268.2834  91.8005 14.98331625 68350,6950.188,96.107,573.997,570.109,0.0
55657.0,STARLINK-5328,PAYLOAD,2024-05-07 04:07:26,14.98340259,0.0002686,70.0013,57.7566,266.5027,93.5825,6.9669e-05,7.39e-06,0.0,0 STARLINK-5328,1 55657U 23021AF  24128.17183034  .00000739  00000-0  69669-4 0  9999,2 55657  70.0013  57.7566 0002686 266.5027  93.5825 14.98340259 68390,6950.161,96.106,573.893,570.159,0.0
55657.0,STARLINK-5328,PAYLOAD,2024-05-07 12:08:07,14.98328062,0.0002527,70.0018,56.9142,266.4192,93.6678,1.55e-05,9.2e-07,0.0,0 STARLINK-5328,1 55657U 23021AF  24128.50563834  .00000092  00000-0  15500-4 0  9993,2 55657  70.0018  56.9142 0002527 266.4192  93.6678 14.98328062 68443,6950.199,96.107,573.82,570.308,0.0
55657.0,STARLINK-5328,PAYLOAD,2024-05-07 21:44:55,14.98338916,0.0002233,70.0026,55.9054,258.2163,101.8745,-0.00025672,-3.155e-05,0.0,0 STARLINK-5328,1 55657U 23021AF  24128.90619898 -.00003155  00000-0 -25672-3 0  9994,2 55657  70.0026  55.9054 0002233 258.2163 101.8745 14.98338916 68800,6950.165,96.106,573.582,570.478,0.0
55657.0,STARLINK-5328,PAYLOAD,2024-05-08 12:10:08,14.98328171,0.0002571,70.0016,54.391,263.441,96.6456,-6.1502e-05,-8.27e-06,0.0,0 STARLINK-5328,1 55657U 23021AF  24129.50704042 -.00000827  00000-0 -61502-4 0  9993,2 55657  70.0016  54.3910 0002571 263.4410  96.6456 14.98328171 68599,6950.199,96.107,573.85,570.277,0.0
55657.0,STARLINK-5328,PAYLOAD,2024-05-08 20:10:48,14.98334495,0.0002575,70.0014,53.5483,264.0976,95.9889,-1.059e-05,-2.19e-06,0.0,0 STARLINK-5328,1 55657U 23021AF  24129.84083481 -.00000219  00000-0 -10590-4 0  9993,2 55657  70.0014  53.5483 0002575 264.0976  95.9889 14.98334495 68645,6950.179,96.107,573.834,570.254,0.0
55657.0,STARLINK-5328,PAYLOAD,2024-05-08 21:46:56,14.98333737,0.0002716,70.0011,53.3812,262.1872,97.8978,-2.4078e-05,-3.8e-06,0.0,0 STARLINK-5328,1 55657U 23021AF  24129.90759537 -.00000380  00000-0 -24078-4 0  9997,2 55657  70.0011  53.3812 0002716 262.1872  97.8978 14.98333737 68959,6950.181,96.107,573.934,570.159,0.0
55657.0,STARLINK-5328,PAYLOAD,2024-05-09 12:12:08,14.98332242,0.0002945,70.0007,51.8638,263.8435,96.2389,-2.3813e-05,-3.77e-06,0.0,0 STARLINK-5328,1 55657U 23021AF  24130.50843464 -.00000377  00000-0 -23813-4 0  9990,2 55657  70.0007  51.8638 0002945 263.8435  96.2389 14.98332242 69040,6950.186,96.107,574.098,570.004,0.0
55657.0,STARLINK-5328,PAYLOAD,2024-05-09 20:12:49,14.98323188,0.0002924,70.0004,51.0219,267.6239,92.4585,0.00014766,1.669e-05,0.0,0 STARLINK-5328,1 55657U 23021AF  24130.84223752  .00001669  00000-0  14766-3 0  9998,2 55657  70.0004  51.0219 0002924 267.6239  92.4585 14.98323188 68791,6950.214,96.107,574.111,570.047,0.0
55657.0,STARLINK-5328,PAYLOAD,2024-05-09 21:48:57,14.98323716,0.0002885,70.0004,50.8535,267.9083,92.1746,0.00014172,1.598e-05,0.0,0 STARLINK-5328,1 55657U 23021AF  24130.90899786  .00001598  00000-0  14172-3 0  9993,2 55657  70.0004  50.8535 0002885 267.9083  92.1746 14.98323716 69104,6950.212,96.107,574.082,570.072,0.0
55657.0,STARLINK-5328,PAYLOAD,2024-05-10 04:13:27,14.98353457,0.0002698,70.0008,50.181,266.6624,93.4226,0.0003768,4.408e-05,0.0,0 STARLINK-5328,1 55657U 23021AF  24131.17601248  .00004408  00000-0  37680-3 0  9999,2 55657  70.0008  50.1810 0002698 266.6624  93.4226 14.98353457 68848,6950.12,96.105,573.86,570.11,0.0
55657.0,STARLINK-5328,PAYLOAD,2024-05-10 18:38:41,14.98334485,0.0002514,70.001,48.6666,266.4631,93.624,5.487e-05,5.62e-06,0.0,0 STARLINK-5328,1 55657U 23021AF  24131.77687105  .00000562  00000-0  54870-4 0  9999,2 55657  70.0010  48.6666 0002514 266.4631  93.6240 14.98334485 68933,6950.179,96.107,573.791,570.297,0.0
55657.0,STARLINK-5328,PAYLOAD,2024-05-10 21:50:57,14.98334473,0.0002466,70.0008,48.33,264.9568,95.1309,5.2218e-05,5.3e-06,0.0,0 STARLINK-5328,1 55657U 23021AF  24131.91039051  .00000530  00000-0  52218-4 0  9995,2 55657  70.0008  48.3300 0002466 264.9568  95.1309 14.98334473 69256,6950.179,96.107,573.758,570.33,0.0
55657.0,STARLINK-5328,PAYLOAD,2024-05-11 04:15:28,14.9835256,0.0002658,70.0013,47.657,263.466,96.6196,0.00032251,3.759e-05,0.0,0 STARLINK-5328,1 55657U 23021AF  24132.17741226  .00003759  00000-0  32251-3 0  9998,2 55657  70.0013  47.6570 0002658 263.4660  96.6196 14.98352560 68990,6950.123,96.106,573.835,570.141,0.0
55657.0,STARLINK-5328,PAYLOAD,2024-05-11 12:16:06,14.98376681,0.0002866,69.9997,46.8154,265.3915,94.6917,0.00039503,4.629e-05,0.0,0 STARLINK-5328,1 55657U 23021AF  24132.51118688  .00004629  00000-0  39503-3 0  9990,2 55657  69.9997  46.8154 0002866 265.3915  94.6917 14.98376681 69048,6950.049,96.104,573.905,569.922,0.0
